{"fetched_at":"2026-07-12T07:15:23.207Z","source":"https://celestrak.org/NORAD/elements/gp.php?GROUP=spire&FORMAT=JSON","constellation":"spire","records":[{"OBJECT_NAME":"LEMUR-2-MYRA","OBJECT_ID":"2025-276EC","EPOCH":"2026-07-11T17:39:17.777952","CLASSIFICATION_TYPE":"U","MEAN_MOTION":15.0056439,"ECCENTRICITY":0.00185373,"INCLINATION":97.5222,"RA_OF_ASC_NODE":262.8153,"ARG_OF_PERICENTER":64.752,"MEAN_ANOMALY":295.5623,"EPHEMERIS_TYPE":0,"NORAD_CAT_ID":66787,"ELEMENT_SET_NO":999,"REV_AT_EPOCH":3389,"BSTAR":0.00028884514,"MEAN_MOTION_DOT":0.000036,"MEAN_MOTION_DDOT":0},{"OBJECT_NAME":"LEMUR-2 FIKRETDENGIZ","OBJECT_ID":"2026-004A","EPOCH":"2026-07-11T22:35:08.684736","CLASSIFICATION_TYPE":"U","MEAN_MOTION":14.88502523,"ECCENTRICITY":0.00103692,"INCLINATION":97.8021,"RA_OF_ASC_NODE":191.1219,"ARG_OF_PERICENTER":65.0256,"MEAN_ANOMALY":295.2037,"EPHEMERIS_TYPE":0,"NORAD_CAT_ID":67363,"ELEMENT_SET_NO":999,"REV_AT_EPOCH":2696,"BSTAR":0.00029414354,"MEAN_MOTION_DOT":0.00002681,"MEAN_MOTION_DDOT":0},{"OBJECT_NAME":"TWILIGHT-1 OBJECT B","OBJECT_ID":"2026-004B","EPOCH":"2026-07-11T12:08:26.049120","CLASSIFICATION_TYPE":"U","MEAN_MOTION":14.8778577,"ECCENTRICITY":0.00099555,"INCLINATION":97.8072,"RA_OF_ASC_NODE":190.6963,"ARG_OF_PERICENTER":56.562,"MEAN_ANOMALY":303.6547,"EPHEMERIS_TYPE":0,"NORAD_CAT_ID":67364,"ELEMENT_SET_NO":999,"REV_AT_EPOCH":2690,"BSTAR":0.00011821451,"MEAN_MOTION_DOT":0.00001025,"MEAN_MOTION_DDOT":0},{"OBJECT_NAME":"LEMUR-2-MARIO-SOUSA","OBJECT_ID":"2026-004C","EPOCH":"2026-07-11T14:02:51.841536","CLASSIFICATION_TYPE":"U","MEAN_MOTION":14.8870867,"ECCENTRICITY":0.00100069,"INCLINATION":97.7995,"RA_OF_ASC_NODE":190.7666,"ARG_OF_PERICENTER":67.2731,"MEAN_ANOMALY":292.9543,"EPHEMERIS_TYPE":0,"NORAD_CAT_ID":67365,"ELEMENT_SET_NO":999,"REV_AT_EPOCH":2692,"BSTAR":0.00025390963,"MEAN_MOTION_DOT":0.00002318,"MEAN_MOTION_DDOT":0},{"OBJECT_NAME":"LEMUR-2-SONNENBLUME","OBJECT_ID":"2026-004E","EPOCH":"2026-07-11T18:56:26.631168","CLASSIFICATION_TYPE":"U","MEAN_MOTION":14.88442703,"ECCENTRICITY":0.00095587,"INCLINATION":97.7998,"RA_OF_ASC_NODE":190.9418,"ARG_OF_PERICENTER":67.7455,"MEAN_ANOMALY":292.4775,"EPHEMERIS_TYPE":0,"NORAD_CAT_ID":67367,"ELEMENT_SET_NO":999,"REV_AT_EPOCH":2695,"BSTAR":0.00017246721,"MEAN_MOTION_DOT":0.00001547,"MEAN_MOTION_DDOT":0},{"OBJECT_NAME":"LEMUR-2-WOBLER","OBJECT_ID":"2026-004F","EPOCH":"2026-07-11T23:32:11.056128","CLASSIFICATION_TYPE":"U","MEAN_MOTION":14.88684125,"ECCENTRICITY":0.00096648,"INCLINATION":97.8046,"RA_OF_ASC_NODE":191.2779,"ARG_OF_PERICENTER":59.0029,"MEAN_ANOMALY":301.2136,"EPHEMERIS_TYPE":0,"NORAD_CAT_ID":67368,"ELEMENT_SET_NO":999,"REV_AT_EPOCH":2698,"BSTAR":0.00020624906,"MEAN_MOTION_DOT":0.00001872,"MEAN_MOTION_DDOT":0},{"OBJECT_NAME":"LEMUR-2-GRAM-E-SUE","OBJECT_ID":"2026-004H","EPOCH":"2026-07-11T23:20:31.401888","CLASSIFICATION_TYPE":"U","MEAN_MOTION":14.88580992,"ECCENTRICITY":0.00087289,"INCLINATION":97.7978,"RA_OF_ASC_NODE":191.1388,"ARG_OF_PERICENTER":69.6926,"MEAN_ANOMALY":290.5228,"EPHEMERIS_TYPE":0,"NORAD_CAT_ID":67370,"ELEMENT_SET_NO":999,"REV_AT_EPOCH":2698,"BSTAR":0.00012360154,"MEAN_MOTION_DOT":0.00001097,"MEAN_MOTION_DDOT":0},{"OBJECT_NAME":"LEMUR-2-KATIE","OBJECT_ID":"2026-004AA","EPOCH":"2026-07-11T22:23:42.533088","CLASSIFICATION_TYPE":"U","MEAN_MOTION":14.90232655,"ECCENTRICITY":0.00037233,"INCLINATION":97.8041,"RA_OF_ASC_NODE":191.6404,"ARG_OF_PERICENTER":41.3938,"MEAN_ANOMALY":318.7561,"EPHEMERIS_TYPE":0,"NORAD_CAT_ID":67387,"ELEMENT_SET_NO":999,"REV_AT_EPOCH":2699,"BSTAR":0.00031446028,"MEAN_MOTION_DOT":0.00002995,"MEAN_MOTION_DDOT":0},{"OBJECT_NAME":"LEMUR-2-HCS-BAZUS","OBJECT_ID":"2026-004AB","EPOCH":"2026-07-11T22:21:23.149152","CLASSIFICATION_TYPE":"U","MEAN_MOTION":14.90250498,"ECCENTRICITY":0.00032515,"INCLINATION":97.803,"RA_OF_ASC_NODE":191.6175,"ARG_OF_PERICENTER":40.9364,"MEAN_ANOMALY":319.2098,"EPHEMERIS_TYPE":0,"NORAD_CAT_ID":67388,"ELEMENT_SET_NO":999,"REV_AT_EPOCH":2699,"BSTAR":0.00018827933,"MEAN_MOTION_DOT":0.00001771,"MEAN_MOTION_DDOT":0}]}
